      2.10          N: GNSS NAV DATA                        RINEX VERSION / TYPE
fic2rin                                 10/10/2019 00:18:51 PGM / RUN BY / DATE
                                                            END OF HEADER
11 19 10 10  0  0  0.0-4.828469827771e-04 1.125499693444e-11 0.000000000000e+00
    6.600000000000e+01 6.637500000000e+01 5.787383924913e-09 1.030073946349e+00
    3.162771463394e-06 1.659988879692e-02 5.535781383514e-06 5.153730991364e+03
    3.456000000000e+05 5.587935447693e-09 4.634213473364e-01-3.669410943985e-07
    9.109410267731e-01 2.454062500000e+02 1.955890016316e+00-8.945729768409e-09
    3.257278535868e-10 1.000000000000e+00 2.074000000000e+03 0.000000000000e+00
    2.400000000000e+00 0.000000000000e+00-1.210719347000e-08 6.600000000000e+01
    3.384000000000e+05 4.000000000000e+00
24 19 10 10  0  0  0.0-3.227498382330e-06-5.684341886081e-13 0.000000000000e+00
    7.000000000000e+00 4.075000000000e+01 5.502729210759e-09 2.086146492444e+00
    2.080574631691e-06 8.813965250738e-03 5.029141902924e-06 5.153694591522e+03
    3.456000000000e+05-2.495944499969e-07-2.279656836995e+00-4.842877388000e-08
    9.377729222121e-01 2.707500000000e+02 6.105503745024e-01-8.538927109160e-09
    2.007226466182e-10 1.000000000000e+00 2.074000000000e+03 0.000000000000e+00
    2.400000000000e+00 0.000000000000e+00 2.793967723846e-09 7.000000000000e+00
    3.384000000000e+05 4.000000000000e+00
16 19 10 10  0  0  0.0-8.180085569620e-05-3.637978807092e-12 0.000000000000e+00
    2.600000000000e+01-3.575000000000e+01 4.019810298377e-09-1.328888156634e+00
   -1.849606633186e-06 1.083255780395e-02 8.730217814445e-06 5.153648097992e+03
    3.456000000000e+05 2.123415470123e-07-1.089462006934e+00-1.303851604462e-07
    9.812916161289e-01 2.213750000000e+02 5.786621792139e-01-7.742465361903e-09
   -5.139499795082e-10 1.000000000000e+00 2.074000000000e+03 0.000000000000e+00
    2.400000000000e+00 0.000000000000e+00-1.071020960808e-08 2.600000000000e+01
    3.384000000000e+05 4.000000000000e+00
12 19 10 10  0  0  0.0 1.956680789590e-04-3.865352482535e-12 0.000000000000e+00
    2.200000000000e+01-2.643750000000e+01 4.144815505346e-09 5.191180442874e-01
   -1.406297087669e-06 7.481168722734e-03 8.450821042061e-06 5.153570251465e+03
    3.456000000000e+05-5.215406417847e-08-1.108368261336e+00 5.401670932770e-08
    9.809708991355e-01 2.277500000000e+02 1.103038736665e+00-7.951759794142e-09
   -5.771668984609e-10 1.000000000000e+00 2.074000000000e+03 0.000000000000e+00
    2.400000000000e+00 0.000000000000e+00-1.257285475731e-08 2.200000000000e+01
    3.384000000000e+05 4.000000000000e+00
17 19 10 10  0  0  0.0 1.412527635694e-04 7.275957614183e-12 0.000000000000e+00
    2.400000000000e+01 5.706250000000e+01 3.669438561131e-09-2.366492548405e+00
    2.976506948471e-06 1.318990462460e-02 9.601935744286e-06 5.153584150314e+03
    3.456000000000e+05 1.769512891769e-07-7.502145417898e-02-2.793967723846e-08
    9.845676807273e-01 2.080000000000e+02-1.700426295089e+00-7.403165514416e-09
    1.478633019572e-10 1.000000000000e+00 2.074000000000e+03 0.000000000000e+00
    2.400000000000e+00 0.000000000000e+00-1.117587089539e-08 2.400000000000e+01
    3.384000000000e+05 4.000000000000e+00
22 19 10 10  0  0  0.0-7.625403814018e-04-3.296918293927e-12 0.000000000000e+00
    8.000000000000e+01-8.915625000000e+01 5.273076787671e-09 3.077119185474e+00
   -4.811212420464e-06 6.876549567096e-03 5.826354026794e-06 5.153685468674e+03
    3.456000000000e+05 9.126961231232e-08 1.887125320859e+00 2.980232238770e-08
    9.282736187337e-01 2.472500000000e+02-1.279428877165e+00-8.385349283456e-09
   -2.089372745047e-10 1.000000000000e+00 2.074000000000e+03 0.000000000000e+00
    2.400000000000e+00 0.000000000000e+00-1.816079020500e-08 8.000000000000e+01
    3.384000000000e+05 4.000000000000e+00
25 19 10 10  0  0  0.0-1.493608579040e-05-1.023181539495e-12 0.000000000000e+00
    9.500000000000e+01-2.890625000000e+01 4.500544608605e-09 1.268040260338e-01
   -1.484528183937e-06 8.453091839328e-03 7.940456271172e-06 5.153650617599e+03
    3.456000000000e+05-3.725290298462e-09-1.174403979668e+00 8.009374141693e-08
    9.683177827338e-01 2.284375000000e+02 8.912403961513e-01-8.181055059495e-09
   -5.946676274365e-10 1.000000000000e+00 2.074000000000e+03 0.000000000000e+00
    2.400000000000e+00 0.000000000000e+00 5.587935447693e-09 9.500000000000e+01
    3.384000000000e+05 4.000000000000e+00
15 19 10 10  0  0  0.0-2.810317091644e-04 2.728484105319e-12 0.000000000000e+00
    6.200000000000e+01 5.812500000000e+00 5.049496046064e-09 3.103048938832e+00
    1.415610313416e-07 1.182391843759e-02 1.174584031105e-05 5.153586183548e+03
    3.456000000000e+05-2.607703208923e-08 2.913311088426e+00-1.527369022369e-07
    9.285082298319e-01 1.365625000000e+02 8.196596155759e-01-8.010690820284e-09
    3.014411276615e-10 1.000000000000e+00 2.074000000000e+03 0.000000000000e+00
    2.400000000000e+00 0.000000000000e+00-1.071020960808e-08 6.200000000000e+01
    3.384000000000e+05 4.000000000000e+00
23 19 10 10  0  0  0.0-1.623281277716e-04 2.160049916711e-12 0.000000000000e+00
    5.400000000000e+01 5.406250000000e+00 4.740197448250e-09 2.590007209636e+00
    2.570450305939e-07 1.323802757543e-02 1.116096973419e-05 5.153750932693e+03
    3.456000000000e+05 3.725290298462e-08 2.990362493584e+00-2.421438694000e-07
    9.438287871717e-01 1.565625000000e+02-2.226039806830e+00-7.810325331400e-09
    3.132273328900e-10 1.000000000000e+00 2.074000000000e+03 0.000000000000e+00
    2.400000000000e+00 0.000000000000e+00-2.002343535423e-08 5.400000000000e+01
    3.384000000000e+05 4.000000000000e+00
14 19 10 10  0  0  0.0-5.697226151824e-05 2.046363078989e-12 0.000000000000e+00
    6.200000000000e+01 2.096875000000e+01 4.371253508826e-09-2.569535846476e+00
    1.071020960808e-06 1.075918285642e-02 1.099519431591e-05 5.153758346558e+03
    3.456000000000e+05 2.216547727585e-07 3.090678358725e+00 9.313225746155e-09
    9.609498294747e-01 1.640625000000e+02-1.932307153675e+00-7.717107162775e-09
    4.450185368083e-10 1.000000000000e+00 2.074000000000e+03 0.000000000000e+00
    2.400000000000e+00 0.000000000000e+00-9.778887033463e-09 6.200000000000e+01
    3.384000000000e+05 4.000000000000e+00
21 19 10 10  0  0  0.0-1.049921847880e-04 6.252776074689e-12 0.000000000000e+00
    6.300000000000e+01 2.896875000000e+01 5.068068248242e-09-3.883510609519e-02
    1.572072505951e-06 2.450430660974e-02 3.827735781670e-06 5.153637437820e+03
    3.456000000000e+05-4.880130290985e-07 8.550356284660e-01-1.471489667892e-07
    9.500678723804e-01 3.050937500000e+02-1.406702872947e+00-8.931800616776e-09
    2.442958901901e-10 1.000000000000e+00 2.074000000000e+03 0.000000000000e+00
    2.400000000000e+00 0.000000000000e+00-1.024454832077e-08 6.300000000000e+01
    3.384000000000e+05 4.000000000000e+00
31 19 10 10  0  0  0.0 4.744622856379e-06-2.614797267597e-12 0.000000000000e+00
    7.400000000000e+01 3.253125000000e+01 5.046638784191e-09 8.572238189043e-01
    1.825392246246e-06 9.420463000424e-03 4.405155777931e-06 5.153701881409e+03
    3.456000000000e+05 8.381903171539e-08-2.196772334191e+00 1.098960638046e-07
    9.590071254676e-01 2.893750000000e+02 3.870888991207e-02-8.396421173216e-09
    1.071473202588e-11 1.000000000000e+00 2.074000000000e+03 0.000000000000e+00
    2.400000000000e+00 0.000000000000e+00-1.350417733192e-08 7.400000000000e+01
    3.384000000000e+05 4.000000000000e+00
29 19 10 10  0  0  0.0 7.555494084954e-05-1.023181539495e-11 0.000000000000e+00
    4.100000000000e+01 6.725000000000e+01 3.741227265704e-09-2.096114672870e+00
    3.380700945854e-06 1.155242323875e-03 9.946525096893e-06 5.153688604355e+03
    3.456000000000e+05 3.166496753693e-08-6.367137353971e-02 3.166496753693e-08
    9.861020989277e-01 2.018125000000e+02 2.037239243649e+00-7.694963383255e-09
    1.410773050075e-10 1.000000000000e+00 2.074000000000e+03 0.000000000000e+00
    2.400000000000e+00 0.000000000000e+00-9.778887033463e-09 4.100000000000e+01
    3.384000000000e+05 4.000000000000e+00
28 19 10 10  0  0  0.0 7.595806382596e-04-1.250555214938e-12 0.000000000000e+00
    2.300000000000e+01-2.581250000000e+01 4.096599211229e-09-1.496695049551e+00
   -1.180917024612e-06 1.911856117658e-02 8.447095751762e-06 5.153707820892e+03
    3.456000000000e+05-1.844018697739e-07-1.085577568835e+00 4.954636096954e-07
    9.802675412892e-01 2.291250000000e+02-1.452766194366e+00-7.896400345341e-09
   -5.671664819034e-10 1.000000000000e+00 2.074000000000e+03 0.000000000000e+00
    3.400000000000e+00 0.000000000000e+00-1.117587089539e-08 2.300000000000e+01
    3.384000000000e+05 4.000000000000e+00
27 19 10 10  0  0  0.0-8.243741467595e-05-1.227817847393e-11 0.000000000000e+00
    5.700000000000e+01 5.740625000000e+01 3.769799884440e-09-2.285194349117e+00
    3.028661012650e-06 7.239937898703e-03 1.055002212524e-05 5.153658254623e+03
    3.456000000000e+05 7.450580596924e-09-1.319731227189e-01-7.823109626770e-08
    9.789012855220e-01 1.853437500000e+02 5.100156992410e-01-7.616745839466e-09
    1.810789712374e-10 1.000000000000e+00 2.074000000000e+03 0.000000000000e+00
    2.400000000000e+00 0.000000000000e+00 1.396983861923e-09 5.700000000000e+01
    3.384000000000e+05 4.000000000000e+00
30 19 10 10  0  0  0.0-5.820626392961e-05-8.071765478235e-12 0.000000000000e+00
    8.400000000000e+01 3.040625000000e+01 5.489157216860e-09 1.106291570124e+00
    1.700595021248e-06 4.180386313237e-03 4.412606358528e-06 5.153741552353e+03
    3.456000000000e+05 7.450580596924e-08-2.185239311257e+00-1.117587089539e-08
    9.398945162307e-01 2.814687500000e+02-2.899858474128e+00-8.672504101749e-09
    3.321566928024e-11 1.000000000000e+00 2.074000000000e+03 0.000000000000e+00
    2.400000000000e+00 0.000000000000e+00 3.725290298462e-09 8.400000000000e+01
    3.384000000000e+05 4.000000000000e+00
